STARLINK-1661           
1 46355U 20062AG  23339.41670248  .00002247  00000+0  16977-3 0  9992
2 46355  53.0557 121.4133 0001591 111.9879 248.1279 15.06391174180107
STARLINK-1665           
1 46356U 20062AH  23338.56893750  .00000528  00000+0  54378-4 0  9991
2 46356  53.0540 125.2577 0001433  96.0806 264.0346 15.06392504179975
STARLINK-1666           
1 46357U 20062AJ  23339.49225312  .00002978  00000+0  21875-3 0  9994
2 46357  53.0547 101.0718 0001358  79.7015 280.4127 15.06400980180393
STARLINK-1690           
1 46358U 20062AK  23338.41044641 -.00000013  00000+0  18017-4 0  9994
2 46358  53.0550 125.9310 0001630  94.9628 265.1547 15.06392356179776
STARLINK-1707           
1 46359U 20062AL  23339.45218915  .00001603  00000+0  12650-3 0  9998
2 46359  53.0550  76.2517 0001656  89.1276 270.9903 15.06406744180732
STARLINK-1713           
1 46360U 20062AM  23338.47909770 -.00002545  00000+0 -15205-3 0  9994
2 46360  53.0559  80.6259 0001132  90.2715 269.8403 15.06391521180418
STARLINK-1722           
1 46361U 20062AN  23339.51022422  .00019179  00000+0  13023-2 0  9995
2 46361  53.0543  75.9820 0001366  96.3716 263.7428 15.06417551180737
STARLINK-1726           
1 46362U 20062AP  23339.48903080  .00001822  00000+0  14117-3 0  9992
2 46362  53.0568  76.0767 0001730 122.1549 237.9608 15.06409873180746
STARLINK-1739           
1 46363U 20062AQ  23338.55188271  .00009739  00000+0  67202-3 0  9995
2 46363  53.0546  80.2945 0001913  61.8833 298.2349 15.06387329180424
STARLINK-1763           
1 46364U 20062AR  23339.48358880  .00006679  00000+0  46694-3 0  9996
2 46364  53.0546  56.6199 0001278 102.3272 257.7860 15.06392563181015
STARLINK-1550           
1 46365U 20062AS  23339.49329822  .00071958  00000+0  90716-3 0  9998
2 46365  53.0521  58.7172 0004877  14.1767 345.9381 15.58965342180969
STARLINK-1651           
1 46366U 20062AT  23338.51964077 -.00000232  00000+0  33536-5 0  9995
2 46366  53.0549  80.4404 0001502  96.4104 263.7056 15.06382165180415
STARLINK-1658           
1 46368U 20062AV  23338.51822121  .00001549  00000+0  12285-3 0  9997
2 46368  53.0542 105.4325 0001187 108.4509 251.6609 15.06408570180073
STARLINK-1670           
1 46370U 20062AX  23338.54866247  .00000019  00000+0  20144-4 0  9995
2 46370  53.0544 105.3122 0001404  76.8942 283.2203 15.06386175180250
STARLINK-1688           
1 46371U 20062AY  23338.54130542  .00014916  00000+0  10183-2 0  9999
2 46371  53.0544 105.3432 0001363  90.0892 270.0253 15.06392823180257
STARLINK-1689           
1 46372U 20062AZ  23338.41781157 -.00002730  00000+0 -16442-3 0  9998
2 46372  53.0557 125.8996 0001516  76.9016 283.2142 15.06409580179772
STARLINK-1711           
1 46374U 20062BB  23339.49320106  .00001580  00000+0  12493-3 0  9994
2 46374  53.0561  51.0647 0001411  89.4153 270.6998 15.06395525181086
STARLINK-1724           
1 46375U 20062BC  23338.51228354  .00008398  00000+0  58213-3 0  9993
2 46375  53.0547  80.4701 0001546 100.3520 259.7644 15.06393015180591
STARLINK-1742           
1 46376U 20062BD  23339.45587629  .00019006  00000+0  12909-2 0  9990
2 46376  53.0547  76.2326 0000935  97.3473 262.7622 15.06414894180736
STARLINK-1758           
1 46380U 20062BH  23339.48856976  .00004571  00000+0  32546-3 0  9993
2 46380  53.0547 101.0910 0001508  67.6987 292.4162 15.06409181180398
STARLINK-1769           
1 46382U 20062BK  23338.54177161  .00007297  00000+0  50848-3 0  9996
2 46382  53.0547  80.3464 0001889  68.0435 292.0754 15.06382376180421
STARLINK-1770           
1 46383U 20062BL  23339.39094027 -.00004809  00000+0 -30450-3 0  9995
2 46383  53.0531 121.5282 0001223  74.4185 285.6939 15.06364414180095
STARLINK-1771           
1 46384U 20062BM  23339.39459018  .00001278  00000+0  10468-3 0  9993
2 46384  53.0552 121.5124 0001303  88.9140 271.1998 15.06388154180096
STARLINK-1644           
1 46532U 20070A   23339.12920847  .00009986  00000+0  68800-3 0  9998
2 46532  53.0550 282.7024 0001519  72.0698 288.0456 15.06419877175096
STARLINK-1648           
1 46533U 20070B   23339.14026623  .00001950  00000+0  14973-3 0  9995
2 46533  53.0548 282.6550 0001539  91.8777 268.2388 15.06407321175091
STARLINK-1659           
1 46534U 20070C   23338.92279934 -.00002227  00000+0 -13066-3 0  9998
2 46534  53.0541 283.6323 0001543  80.8922 279.2241 15.06397389175046
STARLINK-1663           
1 46535U 20070D   23339.04443528  .00017074  00000+0  11621-2 0  9993
2 46535  53.0545 283.0885 0002277  53.8448 306.2751 15.06406824175071
STARLINK-1672           
1 46537U 20070F   23339.07023281  .00005143  00000+0  36387-3 0  9999
2 46537  53.0552 282.9626 0001955 114.5887 245.5306 15.06407188174777
STARLINK-1678           
1 46538U 20070G   23339.11448098  .00007654  00000+0  53232-3 0  9999
2 46538  53.0568 282.7640 0002065  61.7607 298.3590 15.06390013174774
STARLINK-1687           
1 46541U 20070K   23339.16054529  .00005117  00000+0  36201-3 0  9999
2 46541  53.0551 262.5609 0001758  79.2077 280.9110 15.06414013175351
STARLINK-1692           
1 46542U 20070L   23339.16238354  .00024601  00000+0  16645-2 0  9998
2 46542  53.0530 282.5544 0001472 114.0223 246.0920 15.06404005175096
STARLINK-1693           
1 46543U 20070M   23339.08129673  .00004417  00000+0  31513-3 0  9998
2 46543  53.0560 282.9212 0001859  99.8001 260.3198 15.06411606175089
STARLINK-1694           
1 46544U 20070N   23339.07715611  .00006744  00000+0  47131-3 0  9999
2 46544  53.0534 267.9411 0001566  67.6607 292.4548 15.06393518175283
STARLINK-1696           
1 46545U 20070P   23339.11815330  .00003706  00000+0  26750-3 0  9993
2 46545  53.0544 282.7522 0001614 101.9400 258.1770 15.06410849175070
STARLINK-1697           
1 46546U 20070Q   23339.16975827  .00006362  00000+0  44557-3 0  9993
2 46546  53.0539 282.5271 0001503  84.2333 275.8827 15.06403959174789
STARLINK-1698           
1 46547U 20070R   23339.06560110  .00009036  00000+0  62454-3 0  9995
2 46547  53.0543 282.9725 0001986 121.4917 238.6267 15.06413572175081
STARLINK-1699           
1 46548U 20070S   23338.87857460  .00004975  00000+0  35271-3 0  9995
2 46548  53.0566 283.8297 0001792  86.9677 273.1517 15.06395206175034
STARLINK-1700           
1 46549U 20070T   23339.10710114  .00009735  00000+0  67141-3 0  9997
2 46549  53.0539 282.8048 0001534 117.2844 242.8301 15.06405970174770
STARLINK-1701           
1 46550U 20070U   23339.09235218  .00025473  00000+0  17225-2 0  9998
2 46550  53.0546 282.8707 0001312 112.3249 247.7879 15.06406285175080
STARLINK-1664           
1 46553U 20070X   23339.14672325  .00018804  00000+0  12776-2 0  9997
2 46553  53.0532 252.6368 0001504  82.1749 277.9411 15.06409449175507
STARLINK-1671           
1 46554U 20070Y   23338.86703858  .00001045  00000+0  89022-4 0  9991
2 46554  53.0545 268.8813 0001430 121.6604 238.4525 15.06398006175248
STARLINK-1676           
1 46556U 20070AA  23339.25822485  .00031959  00000+0  21551-2 0  9993
2 46556  53.0548 282.1303 0001199 107.6639 252.4481 15.06393719175119
STARLINK-1679           
1 46557U 20070AB  23339.04295493  .00011072  00000+0  76094-3 0  9991
2 46557  53.0538 267.4659 0001399  76.1382 283.9762 15.06403467175298
STARLINK-1680           
1 46558U 20070AC  23339.04397267  .00005163  00000+0  36517-3 0  9994
2 46558  53.0548 268.0874 0001651  85.4573 274.6604 15.06405526175281
STARLINK-1681           
1 46559U 20070AD  23339.16420146  .00005149  00000+0  36415-3 0  9992
2 46559  53.0536 252.5476 0001213  91.1594 268.9534 15.06418313175507
STARLINK-1709           
1 46561U 20070AF  23339.07620821  .00028614  00000+0  19313-2 0  9996
2 46561  53.0536 267.9662 0001390  93.6648 266.4500 15.06414764175287
STARLINK-1714           
1 46562U 20070AG  23339.20749187  .00015263  00000+0  10400-2 0  9993
2 46562  53.0536 262.3443 0001469 103.3148 256.8005 15.06448228175066
STARLINK-1730           
1 46563U 20070AH  23339.19002754  .00002496  00000+0  18643-3 0  9996
2 46563  53.0547 262.4310 0002181 123.4299 236.6899 15.06402713175375
STARLINK-1733           
1 46564U 20070AJ  23339.08954260  .00011527  00000+0  79106-3 0  9999
2 46564  53.0550 262.7143 0001906  85.8763 274.2444 15.06418135175366
STARLINK-1735           
1 46565U 20070AK  23339.21581133 -.00003789  00000+0 -23565-3 0  9991
2 46565  53.0543 262.3162 0001381 102.4276 257.6867 15.06394272175064
STARLINK-1740           
1 46566U 20070AL  23339.06839621  .00001195  00000+0  99138-4 0  9990
2 46566  53.0572 262.9745 0001762  92.1326 267.9865 15.06400530175027
STARLINK-1741           
1 46567U 20070AM  23339.16423271  .00006753  00000+0  47168-3 0  9992
2 46567  53.0539 262.5481 0001390 113.9269 246.1865 15.06409100175367
STARLINK-1747           
1 46569U 20070AP  23339.17896597  .00005289  00000+0  37364-3 0  9990
2 46569  53.0545 262.4844 0001959 139.5153 220.5982 15.06408036175065
STARLINK-1748           
1 46570U 20070AQ  23339.09951434  .00017706  00000+0  60509-3 0  9999
2 46570  53.0264 215.6080 0004537 135.1605 224.9761 15.30374832176029
STARLINK-1531           
1 46572U 20070AS  23339.21672986 -.00004926  00000+0 -31207-3 0  9992
2 46572  53.0556 282.3028 0001470 103.1792 256.9361 15.06396048175108
STARLINK-1660           
1 46574U 20070AU  23339.11400135  .00006488  00000+0  45412-3 0  9994
2 46574  53.0542 267.7723 0001715  78.1811 281.9371 15.06397361175286
STARLINK-1675           
1 46575U 20070AV  23339.16975988  .00009558  00000+0  65936-3 0  9997
2 46575  53.0542 242.5263 0001958  75.4349 284.6857 15.06419749175646
STARLINK-1677           
1 46576U 20070AW  23339.10664614  .00005153  00000+0  36467-3 0  9997
2 46576  53.0547 267.8067 0001585 112.6571 247.4585 15.06390514175284
STARLINK-1682           
1 46577U 20070AX  23339.06976109  .00033090  00000+0  22252-2 0  9995
2 46577  53.0534 267.9729 0001324  94.2693 265.8447 15.06479142175273
